[{"OBJECT_NAME":"STARLINK-34180","OBJECT_ID":"2025-107T","EPOCH":"2026-03-09T09:22:51.211200","MEAN_MOTION":15.27594644,"ECCENTRICITY":2.618e-5,"INCLINATION":42.9963,"RA_OF_ASC_NODE":203.3296,"ARG_OF_PERICENTER":129.6772,"MEAN_ANOMALY":230.4103,"EPHEMERIS_TYPE":0,"CLASSIFICATION_TYPE":"U","NORAD_CAT_ID":64081,"ELEMENT_SET_NO":999,"REV_AT_EPOCH":4607,"BSTAR":0.00095283039,"MEAN_MOTION_DOT":0.00026062,"MEAN_MOTION_DDOT":0},{"OBJECT_NAME":"CZ-2C DEB","OBJECT_ID":"2018-056F","EPOCH":"2026-03-09T10:57:26.102304","MEAN_MOTION":15.27739248,"ECCENTRICITY":0.00119172,"INCLINATION":98.1188,"RA_OF_ASC_NODE":250.032,"ARG_OF_PERICENTER":4.6998,"MEAN_ANOMALY":355.4349,"EPHEMERIS_TYPE":0,"CLASSIFICATION_TYPE":"U","NORAD_CAT_ID":43534,"ELEMENT_SET_NO":999,"REV_AT_EPOCH":41855,"BSTAR":0.00085537155,"MEAN_MOTION_DOT":0.00023193,"MEAN_MOTION_DDOT":0}]
